GLOBALSTAR M040         
1 25622U 99004B   25364.67179529 -.00000014  00000+0  50307-3 0  9998
2 25622  51.9890 179.5794 0002023  97.0854 342.0872 12.62026723240062
GLOBALSTAR M036         
1 25623U 99004C   25364.40000310 -.00000143  00000+0 -88104-3 0  9991
2 25623  51.9974  83.1363 0010826  69.0259  10.3264 11.86616256202278
GLOBALSTAR M022         
1 25649U 99012A   25364.49862411 -.00000094  00000+0 -81320-4 0  9994
2 25649  52.0036 117.2323 0002950 181.5572 271.3716 12.02508525199992
GLOBALSTAR M041         
1 25650U 99012B   25364.25510752 -.00000067  00000+0  23954-3 0  9995
2 25650  52.0046   5.3240 0001158 357.9030   2.1802 11.96681448201759
GLOBALSTAR M046         
1 25651U 99012C   25364.65589654  .00000015  00000+0  11426-2 0  9999
2 25651  52.0067  59.7681 0001566 277.9513 254.1924 12.09415966207435
GLOBALSTAR M037         
1 25652U 99012D   25364.83188191 -.00000072  00000+0  17947-3 0  9990
2 25652  52.0022 305.1947 0001506 274.6794 103.8220 12.62458952236116
